[{"OBJECT_NAME":"YAOGAN-28","OBJECT_ID":"2015-064A","EPOCH":"2026-03-09T23:07:10.370208","MEAN_MOTION":15.26008,"ECCENTRICITY":0.00111911,"INCLINATION":97.2901,"RA_OF_ASC_NODE":209.4389,"ARG_OF_PERICENTER":175.4532,"MEAN_ANOMALY":184.6811,"EPHEMERIS_TYPE":0,"CLASSIFICATION_TYPE":"U","NORAD_CAT_ID":41026,"ELEMENT_SET_NO":999,"REV_AT_EPOCH":57554,"BSTAR":0.00039691695,"MEAN_MOTION_DOT":0.00010159,"MEAN_MOTION_DDOT":0},{"OBJECT_NAME":"COSMOS 2573","OBJECT_ID":"2023-201A","EPOCH":"2026-03-10T00:09:51.763968","MEAN_MOTION":15.24110739,"ECCENTRICITY":0.00025748,"INCLINATION":97.6178,"RA_OF_ASC_NODE":16.7239,"ARG_OF_PERICENTER":58.72,"MEAN_ANOMALY":301.4289,"EPHEMERIS_TYPE":0,"CLASSIFICATION_TYPE":"U","NORAD_CAT_ID":58614,"ELEMENT_SET_NO":999,"REV_AT_EPOCH":12337,"BSTAR":0.00023292354,"MEAN_MOTION_DOT":5.586e-5,"MEAN_MOTION_DDOT":0}]
